{
    "links": {
        "self": "http://www.neowsapp.com/rest/v1/neo/3663828?api_key=iIulBulltgU6a56xZRHN4H3l9WmuAYTsLGpBGhQ2"
    },
    "id": "3663828",
    "neo_reference_id": "3663828",
    "name": "(2014 EX24)",
    "designation": "2014 EX24",
    "nasa_jpl_url": "http://ssd.jpl.nasa.gov/sbdb.cgi?sstr=3663828",
    "absolute_magnitude_h": 28.6,
    "estimated_diameter": {
        "kilometers": {
            "estimated_diameter_min": 0.0050647146,
            "estimated_diameter_max": 0.0113250461
        },
        "meters": {
            "estimated_diameter_min": 5.0647145883,
            "estimated_diameter_max": 11.3250461062
        },
        "miles": {
            "estimated_diameter_min": 0.0031470668,
            "estimated_diameter_max": 0.0070370552
        },
        "feet": {
            "estimated_diameter_min": 16.61651821,
            "estimated_diameter_max": 37.155664267
        }
    },
    "is_potentially_hazardous_asteroid": false,
    "close_approach_data": [
        {
            "close_approach_date": "2004-09-10",
            "close_approach_date_full": "2004-Sep-10 11:15",
            "epoch_date_close_approach": 1094814900000,
            "relative_velocity": {
                "kilometers_per_second": "20.1058348219",
                "kilometers_per_hour": "72381.0053589779",
                "miles_per_hour": "44974.7419131938"
            },
            "miss_distance": {
                "astronomical": "0.1388358549",
                "lunar": "54.0071475561",
                "kilometers": "20769548.172669063",
                "miles": "12905598.7939285494"
            },
            "orbiting_body": "Earth"
        },
        {
            "close_approach_date": "2014-03-09",
            "close_approach_date_full": "2014-Mar-09 14:35",
            "epoch_date_close_approach": 1394375700000,
            "relative_velocity": {
                "kilometers_per_second": "16.1971172761",
                "kilometers_per_hour": "58309.6221940288",
                "miles_per_hour": "36231.3316349508"
            },
            "miss_distance": {
                "astronomical": "0.0017591793",
                "lunar": "0.6843207477",
                "kilometers": "263169.476228091",
                "miles": "163525.9297300158"
            },
            "orbiting_body": "Earth"
        },
        {
            "close_approach_date": "2014-03-09",
            "close_approach_date_full": "2014-Mar-09 15:44",
            "epoch_date_close_approach": 1394379840000,
            "relative_velocity": {
                "kilometers_per_second": "15.2527945985",
                "kilometers_per_hour": "54910.0605545014",
                "miles_per_hour": "34118.9762373234"
            },
            "miss_distance": {
                "astronomical": "0.0016368802",
                "lunar": "0.6367463978",
                "kilometers": "244873.791365174",
                "miles": "152157.5183164412"
            },
            "orbiting_body": "Moon"
        },
        {
            "close_approach_date": "2017-09-08",
            "close_approach_date_full": "2017-Sep-08 06:59",
            "epoch_date_close_approach": 1504853940000,
            "relative_velocity": {
                "kilometers_per_second": "22.7198658486",
                "kilometers_per_hour": "81791.5170550626",
                "miles_per_hour": "50822.0679167971"
            },
            "miss_distance": {
                "astronomical": "0.2273326609",
                "lunar": "88.4324050901",
                "kilometers": "34008481.852072283",
                "miles": "21131890.7240841854"
            },
            "orbiting_body": "Earth"
        }
    ],
    "orbital_data": {
        "orbit_id": "4",
        "orbit_determination_date": "2017-04-06 08:42:05",
        "first_observation_date": "2014-03-11",
        "last_observation_date": "2014-03-12",
        "data_arc_in_days": 1,
        "observations_used": 33,
        "orbit_uncertainty": "7",
        "minimum_orbit_intersection": ".00111243",
        "jupiter_tisserand_invariant": "4.299",
        "epoch_osculation": "2459000.5",
        "eccentricity": ".563000494274783",
        "semi_major_axis": "1.527941098121334",
        "inclination": "4.097343422020177",
        "ascending_node_longitude": "167.8429189833418",
        "orbital_period": "689.8558408906499",
        "perihelion_distance": ".6677095046562683",
        "perihelion_argument": "276.0871911433147",
        "aphelion_distance": "2.388172691586401",
        "perihelion_time": "2458745.726984819371",
        "mean_anomaly": "132.9528287339165",
        "mean_motion": ".5218481582111647",
        "equinox": "J2000",
        "orbit_class": {
            "orbit_class_type": "APO",
            "orbit_class_description": "Near-Earth asteroid orbits which cross the Earth’s orbit similar to that of 1862 Apollo",
            "orbit_class_range": "a (semi-major axis) > 1.0 AU; q (perihelion) < 1.017 AU"
        }
    },
    "is_sentry_object": false
}